start=new Date('2023-05-25T00:00:00.000Z').valueOf();
sats=[{"APOAPSIS":"547.936","SEMIMAJOR_AXIS":"6925.272","GP_ID":"232447911","TLE_LINE2":"2 48581  53.0545 355.8717 0001154 111.1819 248.9293 15.06424994111957","ECCENTRICITY":"0.00011540","PERIAPSIS":"546.338","CLASSIFICATION_TYPE":"U","ELEMENT_SET_NO":"999","RA_OF_ASC_NODE":"355.8717","EPHEMERIS_TYPE":"0","DECAY_DATE":null,"TIME_SYSTEM":"UTC","OBJECT_TYPE":"PAYLOAD","MEAN_ANOMALY":"248.9293","MEAN_MOTION_DDOT":"0.0000000000000","OBJECT_ID":"2021-041AE","CENTER_NAME":"EARTH","RCS_SIZE":"LARGE","OBJECT_NAME":"STARLINK-2235","REF_FRAME":"TEME","MEAN_MOTION":"15.06424994","ARG_OF_PERICENTER":"111.1819","NORAD_CAT_ID":"48581","FILE":"3916549","COUNTRY_CODE":"US","SITE":"AFETR","LAUNCH_DATE":"2021-05-15","MEAN_MOTION_DOT":"0.00012588","INCLINATION":"53.0545","PERIOD":"95.591","REV_AT_EPOCH":"11195","EPOCH":"2023-05-24T15:01:16.705056","TLE_LINE1":"1 48581U 21041AE  23144.62588779  .00012588  00000-0  86188-3 0  9998","BSTAR":"0.00086188000000","MEAN_ELEMENT_THEORY":"SGP4"},{"COUNTRY_CODE":"US","SITE":"AFETR","REV_AT_EPOCH":"11227","PERIOD":"95.591","INCLINATION":"53.0546","LAUNCH_DATE":"2021-05-15","MEAN_MOTION_DOT":"0.00016965","BSTAR":"0.00115470000000","MEAN_ELEMENT_THEORY":"SGP4","TLE_LINE1":"1 48582U 21041AF  23143.87767761  .00016965  00000-0  11547-2 0  9994","EPOCH":"2023-05-23T21:03:51.345504","RCS_SIZE":"LARGE","CENTER_NAME":"EARTH","MEAN_MOTION_DDOT":"0.0000000000000","OBJECT_ID":"2021-041AF","FILE":"3915932","NORAD_CAT_ID":"48582","ARG_OF_PERICENTER":"55.9339","MEAN_MOTION":"15.06412320","REF_FRAME":"TEME","OBJECT_NAME":"STARLINK-2236","EPHEMERIS_TYPE":"0","RA_OF_ASC_NODE":"359.3830","DECAY_DATE":null,"TIME_SYSTEM":"UTC","MEAN_ANOMALY":"304.1769","OBJECT_TYPE":"PAYLOAD","SEMIMAJOR_AXIS":"6925.311","APOAPSIS":"548.049","ECCENTRICITY":"0.00012610","GP_ID":"232412756","TLE_LINE2":"2 48582  53.0546 359.3830 0001261  55.9339 304.1769 15.06412320112274","ELEMENT_SET_NO":"999","CLASSIFICATION_TYPE":"U","PERIAPSIS":"546.303"},{"SEMIMAJOR_AXIS":"6925.323","APOAPSIS":"548.056","CLASSIFICATION_TYPE":"U","PERIAPSIS":"546.321","ELEMENT_SET_NO":"999","ECCENTRICITY":"0.00012530","TLE_LINE2":"2 48583  53.0542  43.6048 0001253  69.9729 290.1394 15.06408254111227","GP_ID":"232448908","RA_OF_ASC_NODE":"43.6048","EPHEMERIS_TYPE":"0","OBJECT_TYPE":"PAYLOAD","MEAN_ANOMALY":"290.1394","DECAY_DATE":null,"TIME_SYSTEM":"UTC","CENTER_NAME":"EARTH","MEAN_MOTION_DDOT":"0.0000000000000","OBJECT_ID":"2021-041AG","RCS_SIZE":"LARGE","MEAN_MOTION":"15.06408254","OBJECT_NAME":"STARLINK-2237","REF_FRAME":"TEME","FILE":"3916549","ARG_OF_PERICENTER":"69.9729","NORAD_CAT_ID":"48583","SITE":"AFETR","COUNTRY_CODE":"US","TLE_LINE1":"1 48583U 21041AG  23144.01541365  .00014278  00000-0  97526-3 0  9999","EPOCH":"2023-05-24T00:22:11.739360","MEAN_ELEMENT_THEORY":"SGP4","BSTAR":"0.00097526000000","PERIOD":"95.592","LAUNCH_DATE":"2021-05-15","INCLINATION":"53.0542","MEAN_MOTION_DOT":"0.00014278","REV_AT_EPOCH":"11122"},{"OBJECT_TYPE":"PAYLOAD","MEAN_ANOMALY":"286.2846","TIME_SYSTEM":"UTC","DECAY_DATE":null,"RA_OF_ASC_NODE":"43.1230","EPHEMERIS_TYPE":"0","PERIAPSIS":"546.447","CLASSIFICATION_TYPE":"U","ELEMENT_SET_NO":"999","GP_ID":"232448164","TLE_LINE2":"2 48584  53.0542  43.1230 0001097  73.8263 286.2846 15.06402138111233","ECCENTRICITY":"0.00010970","APOAPSIS":"547.967","SEMIMAJOR_AXIS":"6925.342","EPOCH":"2023-05-24T02:56:05.705664","TLE_LINE1":"1 48584U 21041AH  23144.12228826  .00023785  00000-0  16102-2 0  9999","BSTAR":"0.00161020000000","MEAN_ELEMENT_THEORY":"SGP4","INCLINATION":"53.0542","LAUNCH_DATE":"2021-05-15","MEAN_MOTION_DOT":"0.00023785","PERIOD":"95.592","REV_AT_EPOCH":"11123","SITE":"AFETR","COUNTRY_CODE":"US","REF_FRAME":"TEME","OBJECT_NAME":"STARLINK-2238","MEAN_MOTION":"15.06402138","ARG_OF_PERICENTER":"73.8263","NORAD_CAT_ID":"48584","FILE":"3916549","OBJECT_ID":"2021-041AH","MEAN_MOTION_DDOT":"0.0000000000000","CENTER_NAME":"EARTH","RCS_SIZE":"LARGE"},{"PERIOD":"95.592","LAUNCH_DATE":"2021-05-15","INCLINATION":"53.0549","MEAN_MOTION_DOT":"0.00014067","REV_AT_EPOCH":"11121","TLE_LINE1":"1 48585U 21041AJ  23144.00067429  .00014067  00000-0  96124-3 0  9993","EPOCH":"2023-05-24T00:00:58.258656","MEAN_ELEMENT_THEORY":"SGP4","BSTAR":"0.00096124000000","COUNTRY_CODE":"US","SITE":"AFETR","MEAN_MOTION":"15.06404259","OBJECT_NAME":"STARLINK-2240","REF_FRAME":"TEME","FILE":"3916549","ARG_OF_PERICENTER":"80.7963","NORAD_CAT_ID":"48585","CENTER_NAME":"EARTH","MEAN_MOTION_DDOT":"0.0000000000000","OBJECT_ID":"2021-041AJ","RCS_SIZE":"LARGE","TIME_SYSTEM":"UTC","DECAY_DATE":null,"MEAN_ANOMALY":"279.3153","OBJECT_TYPE":"PAYLOAD","RA_OF_ASC_NODE":"43.6646","EPHEMERIS_TYPE":"0","ECCENTRICITY":"0.00011270","TLE_LINE2":"2 48585  53.0549  43.6646 0001127  80.7963 279.3153 15.06404259111213","GP_ID":"232448412","CLASSIFICATION_TYPE":"U","PERIAPSIS":"546.420","ELEMENT_SET_NO":"999","SEMIMAJOR_AXIS":"6925.336","APOAPSIS":"547.981"},{"SEMIMAJOR_AXIS":"6925.328","APOAPSIS":"547.956","ECCENTRICITY":"0.00011020","TLE_LINE2":"2 48586  53.0535  43.1071 0001102 113.2743 246.8362 15.06406747111234","GP_ID":"232449158","CLASSIFICATION_TYPE":"U","PERIAPSIS":"546.430","ELEMENT_SET_NO":"999","RA_OF_ASC_NODE":"43.1071","EPHEMERIS_TYPE":"0","TIME_SYSTEM":"UTC","DECAY_DATE":null,"MEAN_ANOMALY":"246.8362","OBJECT_TYPE":"PAYLOAD","CENTER_NAME":"EARTH","MEAN_MOTION_DDOT":"0.0000000000000","OBJECT_ID":"2021-041AK","RCS_SIZE":"LARGE","MEAN_MOTION":"15.06406747","REF_FRAME":"TEME","OBJECT_NAME":"STARLINK-2241","FILE":"3916549","ARG_OF_PERICENTER":"113.2743","NORAD_CAT_ID":"48586","COUNTRY_CODE":"US","SITE":"AFETR","PERIOD":"95.592","INCLINATION":"53.0535","LAUNCH_DATE":"2021-05-15","MEAN_MOTION_DOT":"0.00011188","REV_AT_EPOCH":"11123","TLE_LINE1":"1 48586U 21041AK  23144.12598733  .00011188  00000-0  76862-3 0  9992","EPOCH":"2023-05-24T03:01:25.305312","MEAN_ELEMENT_THEORY":"SGP4","BSTAR":"0.00076862000000"},{"RA_OF_ASC_NODE":"43.0889","EPHEMERIS_TYPE":"0","TIME_SYSTEM":"UTC","DECAY_DATE":null,"OBJECT_TYPE":"PAYLOAD","MEAN_ANOMALY":"227.1140","SEMIMAJOR_AXIS":"6925.342","APOAPSIS":"547.932","ECCENTRICITY":"0.00010480","TLE_LINE2":"2 48587  53.0543  43.0889 0001048 132.9937 227.1140 15.06402243111235","GP_ID":"232449409","CLASSIFICATION_TYPE":"U","PERIAPSIS":"546.481","ELEMENT_SET_NO":"999","COUNTRY_CODE":"US","SITE":"AFETR","PERIOD":"95.592","INCLINATION":"53.0543","LAUNCH_DATE":"2021-05-15","MEAN_MOTION_DOT":"0.00014686","REV_AT_EPOCH":"11123","TLE_LINE1":"1 48587U 21041AL  23144.12967832  .00014686  00000-0  10027-2 0  9999","EPOCH":"2023-05-24T03:06:44.206848","BSTAR":"0.00100270000000","MEAN_ELEMENT_THEORY":"SGP4","CENTER_NAME":"EARTH","OBJECT_ID":"2021-041AL","MEAN_MOTION_DDOT":"0.0000000000000","RCS_SIZE":"LARGE","MEAN_MOTION":"15.06402243","OBJECT_NAME":"STARLINK-2242","REF_FRAME":"TEME","FILE":"3916549","ARG_OF_PERICENTER":"132.9937","NORAD_CAT_ID":"48587"},{"ECCENTRICITY":"0.00012980","TLE_LINE2":"2 48588  53.0554  33.1814 0001298  65.0130 295.0994 15.06419964111378","GP_ID":"232447664","CLASSIFICATION_TYPE":"U","PERIAPSIS":"546.253","ELEMENT_SET_NO":"999","SEMIMAJOR_AXIS":"6925.287","APOAPSIS":"548.051","DECAY_DATE":null,"TIME_SYSTEM":"UTC","OBJECT_TYPE":"PAYLOAD","MEAN_ANOMALY":"295.0994","RA_OF_ASC_NODE":"33.1814","EPHEMERIS_TYPE":"0","MEAN_MOTION":"15.06419964","REF_FRAME":"TEME","OBJECT_NAME":"STARLINK-2244","FILE":"3916549","ARG_OF_PERICENTER":"65.0130","NORAD_CAT_ID":"48588","CENTER_NAME":"EARTH","MEAN_MOTION_DDOT":"0.0000000000000","OBJECT_ID":"2021-041AM","RCS_SIZE":"LARGE","PERIOD":"95.591","MEAN_MOTION_DOT":"0.00016168","LAUNCH_DATE":"2021-05-15","INCLINATION":"53.0554","REV_AT_EPOCH":"11137","TLE_LINE1":"1 48588U 21041AM  23144.10848500  .00016168  00000-0  11012-2 0  9990","EPOCH":"2023-05-24T02:36:13.104000","MEAN_ELEMENT_THEORY":"SGP4","BSTAR":"0.00110120000000","COUNTRY_CODE":"US","SITE":"AFETR"},{"CENTER_NAME":"EARTH","OBJECT_ID":"2021-041AN","MEAN_MOTION_DDOT":"0.0000000000000","RCS_SIZE":"LARGE","MEAN_MOTION":"15.06414034","REF_FRAME":"TEME","OBJECT_NAME":"STARLINK-2245","FILE":"3916549","ARG_OF_PERICENTER":"67.1890","NORAD_CAT_ID":"48589","SITE":"AFETR","COUNTRY_CODE":"US","TLE_LINE1":"1 48589U 21041AN  23143.97210515  .00016310  00000-0  11109-2 0  9990","EPOCH":"2023-05-23T23:19:49.884960","BSTAR":"0.00111090000000","MEAN_ELEMENT_THEORY":"SGP4","PERIOD":"95.591","INCLINATION":"53.0547","LAUNCH_DATE":"2021-05-15","MEAN_MOTION_DOT":"0.00016310","REV_AT_EPOCH":"11135","SEMIMAJOR_AXIS":"6925.306","APOAPSIS":"548.034","CLASSIFICATION_TYPE":"U","PERIAPSIS":"546.307","ELEMENT_SET_NO":"999","ECCENTRICITY":"0.00012470","TLE_LINE2":"2 48589  53.0547  33.7967 0001247  67.1890 292.9230 15.06414034111356","GP_ID":"232447912","RA_OF_ASC_NODE":"33.7967","EPHEMERIS_TYPE":"0","MEAN_ANOMALY":"292.9230","OBJECT_TYPE":"PAYLOAD","TIME_SYSTEM":"UTC","DECAY_DATE":null},{"ECCENTRICITY":"0.00010920","TLE_LINE2":"2 48591  53.0547  33.2698 0001092 134.4799 225.6280 15.06404979112276","GP_ID":"232448658","CLASSIFICATION_TYPE":"U","PERIAPSIS":"546.442","ELEMENT_SET_NO":"999","SEMIMAJOR_AXIS":"6925.333","APOAPSIS":"547.955","DECAY_DATE":null,"TIME_SYSTEM":"UTC","OBJECT_TYPE":"PAYLOAD","MEAN_ANOMALY":"225.6280","RA_OF_ASC_NODE":"33.2698","EPHEMERIS_TYPE":"0","MEAN_MOTION":"15.06404979","REF_FRAME":"TEME","OBJECT_NAME":"STARLINK-2248","FILE":"3916549","NORAD_CAT_ID":"48591","ARG_OF_PERICENTER":"134.4799","CENTER_NAME":"EARTH","MEAN_MOTION_DDOT":"0.0000000000000","OBJECT_ID":"2021-041AQ","RCS_SIZE":"LARGE","PERIOD":"95.592","LAUNCH_DATE":"2021-05-15","INCLINATION":"53.0547","MEAN_MOTION_DOT":"0.00013430","REV_AT_EPOCH":"11227","TLE_LINE1":"1 48591U 21041AQ  23144.08910737  .00013430  00000-0  91865-3 0  9997","EPOCH":"2023-05-24T02:08:18.876768","BSTAR":"0.00091865000000","MEAN_ELEMENT_THEORY":"SGP4","COUNTRY_CODE":"US","SITE":"AFETR"}];
